FENGYUN 1C DEB          
1 31971U 99025CNY 17345.47529229  .00001558  00000-0  64707-3 0  9992
2 31971 102.2690  76.9597 0017044 227.6185 191.6843 14.28826338233615
